{
  "norad_id": 62079,
  "name": "SUPERVIEW NEO-2 03",
  "history": [
    {
      "epoch": "2026-03-27T12:53:36.012768",
      "apogee_km": 507.792859952232,
      "perigee_km": 505.57044049193973,
      "latitude_deg": -39.15686561866434,
      "longitude_deg": -16.526652480009943,
      "semi_major_axis_km": 6884.818650222085,
      "eccentricity": 0.0001614,
      "inclination_deg": 97.4388,
      "raan_deg": 95.0281,
      "arg_perigee_deg": 87.0,
      "mean_anomaly_deg": 273.1419,
      "mean_motion_rev_day": 15.19721488
    }
  ]
}